{
  "type": "FeatureCollection",
  "features": [
    {
      "type": "Feature",
      "properties": {
        "norad_id": 34010,
        "name": "COSMOS 2251 DEB",
        "group": "cosmos-2251-debris",
        "lat": -20.377458915974692,
        "lon": 115.61324666492526,
        "alt_km": 519.7702461620056,
        "timestamp": "2025-12-09T18:55:17.625070+00:00",
        "meta_object_name": "COSMOS 2251 DEB",
        "meta_object_id": "1993-036GV",
        "meta_epoch": "2025-12-09T06:57:53.869248",
        "meta_mean_motion": 15.17705976,
        "meta_eccentricity": 0.0004762,
        "meta_inclination": 73.9982,
        "meta_ra_of_asc_node": 290.5366,
        "meta_arg_of_pericenter": 65.0414,
        "meta_mean_anomaly": 295.1277,
        "meta_ephemeris_type": 0,
        "meta_classification_type": "U",
        "meta_norad_cat_id": 34010,
        "meta_element_set_no": 999,
        "meta_rev_at_epoch": 89233,
        "meta_bstar": 0.0056684,
        "meta_mean_motion_dot": 0.00116178,
        "meta_mean_motion_ddot": 0,
        "tle_line1": "1 34010U 93036GV  25343.29020682  .00116178  00000+0  56684-2 0  9999",
        "tle_line2": "2 34010  73.9982 290.5366 0004762  65.0414 295.1277 15.17705976892334"
      },
      "geometry": {
        "type": "Point",
        "coordinates": [
          115.61324666492526,
          -20.377458915974692
        ]
      }
    },
    {
      "type": "Feature",
      "properties": {
        "norad_id": 34011,
        "name": "COSMOS 2251 DEB",
        "group": "cosmos-2251-debris",
        "lat": 61.64484456521097,
        "lon": 7.706919656141808,
        "alt_km": 721.2975035982654,
        "timestamp": "2025-12-09T18:55:17.625080+00:00",
        "meta_object_name": "COSMOS 2251 DEB",
        "meta_object_id": "1993-036GW",
        "meta_epoch": "2025-12-09T10:17:26.068416",
        "meta_mean_motion": 14.41745171,
        "meta_eccentricity": 0.00353608,
        "meta_inclination": 74.0156,
        "meta_ra_of_asc_node": 336.2929,
        "meta_arg_of_pericenter": 60.9751,
        "meta_mean_anomaly": 299.4941,
        "meta_ephemeris_type": 0,
        "meta_classification_type": "U",
        "meta_norad_cat_id": 34011,
        "meta_element_set_no": 999,
        "meta_rev_at_epoch": 87868,
        "meta_bstar": 0.0012546177,
        "meta_mean_motion_dot": 4.101e-05,
        "meta_mean_motion_ddot": 0,
        "tle_line1": "1 34011U 93036GW  25343.42877394  .00004101  00000+0  12546-2 0  9996",
        "tle_line2": "2 34011  74.0156 336.2929 0035360  60.9751 299.4941 14.41745171878683"
      },
      "geometry": {
        "type": "Point",
        "coordinates": [
          7.706919656141808,
          61.64484456521097
        ]
      }
    },
    {
      "type": "Feature",
      "properties": {
        "norad_id": 34014,
        "name": "COSMOS 2251 DEB",
        "group": "cosmos-2251-debris",
        "lat": 28.987415283137217,
        "lon": -64.3811866633945,
        "alt_km": 628.6860981218078,
        "timestamp": "2025-12-09T18:55:17.625090+00:00",
        "meta_object_name": "COSMOS 2251 DEB",
        "meta_object_id": "1993-036GZ",
        "meta_epoch": "2025-12-09T07:55:50.935296",
        "meta_mean_motion": 14.73067821,
        "meta_eccentricity": 0.0036911,
        "meta_inclination": 74.0175,
        "meta_ra_of_asc_node": 287.3752,
        "meta_arg_of_pericenter": 67.9586,
        "meta_mean_anomaly": 55.147,
        "meta_ephemeris_type": 0,
        "meta_classification_type": "U",
        "meta_norad_cat_id": 34014,
        "meta_element_set_no": 999,
        "meta_rev_at_epoch": 89253,
        "meta_bstar": 0.0014897,
        "meta_mean_motion_dot": 9.669e-05,
        "meta_mean_motion_ddot": 0,
        "tle_line1": "1 34014U 93036GZ  25343.33045064  .00009669  00000+0  14897-2 0  9995",
        "tle_line2": "2 34014  74.0175 287.3752 0036911  67.9586  55.1470 14.73067821892531"
      },
      "geometry": {
        "type": "Point",
        "coordinates": [
          -64.3811866633945,
          28.987415283137217
        ]
      }
    },
    {
      "type": "Feature",
      "properties": {
        "norad_id": 34015,
        "name": "COSMOS 2251 DEB",
        "group": "cosmos-2251-debris",
        "lat": -69.00420271260003,
        "lon": 116.77411250526599,
        "alt_km": 685.6484157821269,
        "timestamp": "2025-12-09T18:55:17.625100+00:00",
        "meta_object_name": "COSMOS 2251 DEB",
        "meta_object_id": "1993-036HA",
        "meta_epoch": "2025-12-09T12:57:36.560736",
        "meta_mean_motion": 14.60179915,
        "meta_eccentricity": 0.00210718,
        "meta_inclination": 74.0235,
        "meta_ra_of_asc_node": 165.5363,
        "meta_arg_of_pericenter": 262.6269,
        "meta_mean_anomaly": 155.9324,
        "meta_ephemeris_type": 0,
        "meta_classification_type": "U",
        "meta_norad_cat_id": 34015,
        "meta_element_set_no": 999,
        "meta_rev_at_epoch": 88484,
        "meta_bstar": 0.001930378,
        "meta_mean_motion_dot": 9.312e-05,
        "meta_mean_motion_ddot": 0,
        "tle_line1": "1 34015U 93036HA  25343.54000649  .00009312  00000+0  19304-2 0  9992",
        "tle_line2": "2 34015  74.0235 165.5363 0021071 262.6269 155.9324 14.60179915884843"
      },
      "geometry": {
        "type": "Point",
        "coordinates": [
          116.77411250526599,
          -69.00420271260003
        ]
      }
    },
    {
      "type": "Feature",
      "properties": {
        "norad_id": 34018,
        "name": "COSMOS 2251 DEB",
        "group": "cosmos-2251-debris",
        "lat": -8.360873037695612,
        "lon": -80.46674936169549,
        "alt_km": 849.3138674998481,
        "timestamp": "2025-12-09T18:55:17.625110+00:00",
        "meta_object_name": "COSMOS 2251 DEB",
        "meta_object_id": "1993-036HD",
        "meta_epoch": "2025-12-09T14:39:26.494848",
        "meta_mean_motion": 13.81065479,
        "meta_eccentricity": 0.02639417,
        "meta_inclination": 73.8774,
        "meta_ra_of_asc_node": 97.3979,
        "meta_arg_of_pericenter": 133.8755,
        "meta_mean_anomaly": 249.2284,
        "meta_ephemeris_type": 0,
        "meta_classification_type": "U",
        "meta_norad_cat_id": 34018,
        "meta_element_set_no": 999,
        "meta_rev_at_epoch": 84614,
        "meta_bstar": 0.00092225828,
        "meta_mean_motion_dot": 1.248e-05,
        "meta_mean_motion_ddot": 0,
        "tle_line1": "1 34018U 93036HD  25343.61072332  .00001248  00000+0  92226-3 0  9996",
        "tle_line2": "2 34018  73.8774  97.3979 0263941 133.8755 249.2284 13.81065479846143"
      },
      "geometry": {
        "type": "Point",
        "coordinates": [
          -80.46674936169549,
          -8.360873037695612
        ]
      }
    },
    {
      "type": "Feature",
      "properties": {
        "norad_id": 34019,
        "name": "COSMOS 2251 DEB",
        "group": "cosmos-2251-debris",
        "lat": 64.82499585382078,
        "lon": -161.58598733016046,
        "alt_km": 799.5683719901781,
        "timestamp": "2025-12-09T18:55:17.625120+00:00",
        "meta_object_name": "COSMOS 2251 DEB",
        "meta_object_id": "1993-036HE",
        "meta_epoch": "2025-12-09T15:48:47.143872",
        "meta_mean_motion": 14.33914513,
        "meta_eccentricity": 0.0062715,
        "meta_inclination": 73.9548,
        "meta_ra_of_asc_node": 56.4057,
        "meta_arg_of_pericenter": 238.0731,
        "meta_mean_anomaly": 283.787,
        "meta_ephemeris_type": 0,
        "meta_classification_type": "U",
        "meta_norad_cat_id": 34019,
        "meta_element_set_no": 999,
        "meta_rev_at_epoch": 87476,
        "meta_bstar": 0.0015110798,
        "meta_mean_motion_dot": 4.281e-05,
        "meta_mean_motion_ddot": 0,
        "tle_line1": "1 34019U 93036HE  25343.65887898  .00004281  00000+0  15111-2 0  9999",
        "tle_line2": "2 34019  73.9548  56.4057 0062715 238.0731 283.7870 14.33914513874768"
      },
      "geometry": {
        "type": "Point",
        "coordinates": [
          -161.58598733016046,
          64.82499585382078
        ]
      }
    },
    {
      "type": "Feature",
      "properties": {
        "norad_id": 34021,
        "name": "COSMOS 2251 DEB",
        "group": "cosmos-2251-debris",
        "lat": 37.75200490562763,
        "lon": 148.17657215729628,
        "alt_km": 730.1417234524642,
        "timestamp": "2025-12-09T18:55:17.625131+00:00",
        "meta_object_name": "COSMOS 2251 DEB",
        "meta_object_id": "1993-036HG",
        "meta_epoch": "2025-12-09T10:36:10.452096",
        "meta_mean_motion": 14.49928853,
        "meta_eccentricity": 0.00208492,
        "meta_inclination": 74.0357,
        "meta_ra_of_asc_node": 136.0205,
        "meta_arg_of_pericenter": 280.392,
        "meta_mean_anomaly": 110.5569,
        "meta_ephemeris_type": 0,
        "meta_classification_type": "U",
        "meta_norad_cat_id": 34021,
        "meta_element_set_no": 999,
        "meta_rev_at_epoch": 88582,
        "meta_bstar": 0.00083234624,
        "meta_mean_motion_dot": 3.201e-05,
        "meta_mean_motion_ddot": 0,
        "tle_line1": "1 34021U 93036HG  25343.44178764  .00003201  00000+0  83235-3 0  9998",
        "tle_line2": "2 34021  74.0357 136.0205 0020849 280.3920 110.5569 14.49928853885823"
      },
      "geometry": {
        "type": "Point",
        "coordinates": [
          148.17657215729628,
          37.75200490562763
        ]
      }
    }
  ]
}